LANDSAT 9               
1 49260U 21088A   24230.14949719  .00001660  00000+0  37861-3 0  9995
2 49260  98.2282 298.9922 0001302  92.0484 268.0863 14.57082111153561
